[{"OBJECT_NAME":"FENGYUN 3B","OBJECT_ID":"2010-059A","EPOCH":"2026-03-10T00:20:44.307744","MEAN_MOTION":14.14816293,"ECCENTRICITY":0.00231137,"INCLINATION":98.9763,"RA_OF_ASC_NODE":114.55,"ARG_OF_PERICENTER":107.0698,"MEAN_ANOMALY":316.1301,"EPHEMERIS_TYPE":0,"CLASSIFICATION_TYPE":"U","NORAD_CAT_ID":37214,"ELEMENT_SET_NO":999,"REV_AT_EPOCH":79340,"BSTAR":-0.00015312798,"MEAN_MOTION_DOT":-3.41e-6,"MEAN_MOTION_DDOT":0},{"OBJECT_NAME":"CZ-6A R\/B","OBJECT_ID":"2024-140U","EPOCH":"2026-03-09T15:29:21.493824","MEAN_MOTION":14.19864678,"ECCENTRICITY":0.0042009,"INCLINATION":88.9961,"RA_OF_ASC_NODE":285.9549,"ARG_OF_PERICENTER":152.0417,"MEAN_ANOMALY":208.3043,"EPHEMERIS_TYPE":0,"CLASSIFICATION_TYPE":"U","NORAD_CAT_ID":60397,"ELEMENT_SET_NO":999,"REV_AT_EPOCH":8206,"BSTAR":5.5847e-5,"MEAN_MOTION_DOT":1.34e-6,"MEAN_MOTION_DDOT":0}]
